{"type": "FeatureCollection", "features": [ {"type": "Feature", "properties": {"norad_id": 31615, "name": "FENGYUN 1C DEB", "group": "fengyun-1c-debris", "lat": 44.997683776479256, "lon": -119.41037307327345, "alt_km": 867.561483124804, "timestamp": "2025-12-25T03:55:56.641261+00:00", "meta": {"OBJECT_NAME": "FENGYUN 1C DEB", "OBJECT_ID": "1999-025BZV", "EPOCH": "2025-12-21T08:57:52.598016", "MEAN_MOTION": 14.35490387, "ECCENTRICITY": 0.01666424, "INCLINATION": 99.1375, "RA_OF_ASC_NODE": 47.3142, "ARG_OF_PERICENTER": 291.3447, "MEAN_ANOMALY": 67.0022, "EPHEMERIS_TYPE": 0, "CLASSIFICATION_TYPE": "U", "NORAD_CAT_ID": 31615, "ELEMENT_SET_NO": 999, "REV_AT_EPOCH": 65402, "BSTAR": 0.002664341, "MEAN_MOTION_DOT": 8.927e-05, "MEAN_MOTION_DDOT": 0}, "tle": {"line1": "1 31615U 99025BZV 25355.37352544  .00008927  00000+0  26643-2 0  9992", "line2": "2 31615  99.1375  47.3142 0166642 291.3447  67.0022 14.35490387654026"}}, "geometry": {"type": "Point", "coordinates": [-119.41037307327345, 44.997683776479256]}}, {"type": "Feature", "properties": {"norad_id": 31618, "name": "FENGYUN 1C DEB", "group": "fengyun-1c-debris", "lat": -79.01313136454223, "lon": -158.0315473936796, "alt_km": 719.9805205950934, "timestamp": "2025-12-25T03:55:56.641271+00:00", "meta": {"OBJECT_NAME": "FENGYUN 1C DEB", "OBJECT_ID": "1999-025BZY", "EPOCH": "2025-12-23T05:00:13.341600", "MEAN_MOTION": 14.21035882, "ECCENTRICITY": 0.0156931, "INCLINATION": 99.4438, "RA_OF_ASC_NODE": 140.8629, "ARG_OF_PERICENTER": 296.392, "MEAN_ANOMALY": 62.1219, "EPHEMERIS_TYPE": 0, "CLASSIFICATION_TYPE": "U", "NORAD_CAT_ID": 31618, "ELEMENT_SET_NO": 999, "REV_AT_EPOCH": 70413, "BSTAR": 0.00031508967, "MEAN_MOTION_DOT": 7.22e-06, "MEAN_MOTION_DDOT": 0}, "tle": {"line1": "1 31618U 99025BZY 25357.20848775  .00000722  00000+0  31509-3 0  9998", "line2": "2 31618  99.4438 140.8629 0156931 296.3920  62.1219 14.21035882704134"}}, "geometry": {"type": "Point", "coordinates": [-158.0315473936796, -79.01313136454223]}}, {"type": "Feature", "properties": {"norad_id": 31619, "name": "FENGYUN 1C DEB", "group": "fengyun-1c-debris", "lat": -57.0995435543898, "lon": -0.8325368083115988, "alt_km": 553.7588462972608, "timestamp": "2025-12-25T03:55:56.641281+00:00", "meta": {"OBJECT_NAME": "FENGYUN 1C DEB", "OBJECT_ID": "1999-025BZZ", "EPOCH": "2025-12-23T18:32:51.274752", "MEAN_MOTION": 14.86406694, "ECCENTRICITY": 0.00934013, "INCLINATION": 99.0722, "RA_OF_ASC_NODE": 191.8806, "ARG_OF_PERICENTER": 260.5478, "MEAN_ANOMALY": 98.5166, "EPHEMERIS_TYPE": 0, "CLASSIFICATION_TYPE": "U", "NORAD_CAT_ID": 31619, "ELEMENT_SET_NO": 999, "REV_AT_EPOCH": 63652, "BSTAR": 0.0049559885, "MEAN_MOTION_DOT": 0.00047576, "MEAN_MOTION_DDOT": 0}, "tle": {"line1": "1 31619U 99025BZZ 25357.77281568  .00047576  00000+0  49560-2 0  9995", "line2": "2 31619  99.0722 191.8806 0093401 260.5478  98.5166 14.86406694636528"}}, "geometry": {"type": "Point", "coordinates": [-0.8325368083115988, -57.0995435543898]}}, {"type": "Feature", "properties": {"norad_id": 31620, "name": "FENGYUN 1C DEB", "group": "fengyun-1c-debris", "lat": -22.961489251390642, "lon": -100.14588459749282, "alt_km": 785.7417092773076, "timestamp": "2025-12-25T03:55:56.641291+00:00", "meta": {"OBJECT_NAME": "FENGYUN 1C DEB", "OBJECT_ID": "1999-025CAA", "EPOCH": "2025-12-18T12:16:26.023584", "MEAN_MOTION": 14.37303737, "ECCENTRICITY": 0.00195289, "INCLINATION": 98.8873, "RA_OF_ASC_NODE": 76.7848, "ARG_OF_PERICENTER": 23.9081, "MEAN_ANOMALY": 336.3007, "EPHEMERIS_TYPE": 0, "CLASSIFICATION_TYPE": "U", "NORAD_CAT_ID": 31620, "ELEMENT_SET_NO": 999, "REV_AT_EPOCH": 65927, "BSTAR": 0.0019950798, "MEAN_MOTION_DOT": 5.921e-05, "MEAN_MOTION_DDOT": 0}, "tle": {"line1": "1 31620U 99025CAA 25352.51141231  .00005921  00000+0  19951-2 0  9995", "line2": "2 31620  98.8873  76.7848 0019528  23.9081 336.3007 14.37303737659274"}}, "geometry": {"type": "Point", "coordinates": [-100.14588459749282, -22.961489251390642]}}, {"type": "Feature", "properties": {"norad_id": 31622, "name": "FENGYUN 1C DEB", "group": "fengyun-1c-debris", "lat": -5.094565054995363, "lon": -86.55008396542081, "alt_km": 776.0937289320718, "timestamp": "2025-12-25T03:55:56.641302+00:00", "meta": {"OBJECT_NAME": "FENGYUN 1C DEB", "OBJECT_ID": "1999-025CAC", "EPOCH": "2025-12-23T06:13:46.108416", "MEAN_MOTION": 14.37285309, "ECCENTRICITY": 0.00152434, "INCLINATION": 98.816, "RA_OF_ASC_NODE": 92.2918, "ARG_OF_PERICENTER": 308.7042, "MEAN_ANOMALY": 108.8155, "EPHEMERIS_TYPE": 0, "CLASSIFICATION_TYPE": "U", "NORAD_CAT_ID": 31622, "ELEMENT_SET_NO": 999, "REV_AT_EPOCH": 95923, "BSTAR": 0.00190205, "MEAN_MOTION_DOT": 5.636e-05, "MEAN_MOTION_DDOT": 0}, "tle": {"line1": "1 31622U 99025CAC 25357.25956144  .00005636  00000+0  19020-2 0  9990", "line2": "2 31622  98.8160  92.2918 0015243 308.7042 108.8155 14.37285309959236"}}, "geometry": {"type": "Point", "coordinates": [-86.55008396542081, -5.094565054995363]}}, {"type": "Feature", "properties": {"norad_id": 31623, "name": "FENGYUN 1C DEB", "group": "fengyun-1c-debris", "lat": -15.91824107805523, "lon": 26.21490248678817, "alt_km": 1059.8226717003927, "timestamp": "2025-12-25T03:55:56.641312+00:00", "meta": {"OBJECT_NAME": "FENGYUN 1C DEB", "OBJECT_ID": "1999-025CAD", "EPOCH": "2025-12-22T19:23:51.435744", "MEAN_MOTION": 13.82604829, "ECCENTRICITY": 0.01941743, "INCLINATION": 97.6285, "RA_OF_ASC_NODE": 206.4945, "ARG_OF_PERICENTER": 338.158, "MEAN_ANOMALY": 21.1382, "EPHEMERIS_TYPE": 0, "CLASSIFICATION_TYPE": "U", "NORAD_CAT_ID": 31623, "ELEMENT_SET_NO": 999, "REV_AT_EPOCH": 58059, "BSTAR": 0.00035445246, "MEAN_MOTION_DOT": 4.12e-06, "MEAN_MOTION_DDOT": 0}, "tle": {"line1": "1 31623U 99025CAD 25356.80823421  .00000412  00000+0  35445-3 0  9999", "line2": "2 31623  97.6285 206.4945 0194174 338.1580  21.1382 13.82604829580595"}}, "geometry": {"type": "Point", "coordinates": [26.21490248678817, -15.91824107805523]}}, {"type": "Feature", "properties": {"norad_id": 31625, "name": "FENGYUN 1C DEB", "group": "fengyun-1c-debris", "lat": -72.73894432607784, "lon": -124.06182837405572, "alt_km": 700.7035899631164, "timestamp": "2025-12-25T03:55:56.641323+00:00", "meta": {"OBJECT_NAME": "FENGYUN 1C DEB", "OBJECT_ID": "1999-025CAF", "EPOCH": "2025-12-23T11:26:13.055136", "MEAN_MOTION": 14.55414171, "ECCENTRICITY": 0.01486398, "INCLINATION": 98.8052, "RA_OF_ASC_NODE": 84.0838, "ARG_OF_PERICENTER": 343.0818, "MEAN_ANOMALY": 78.1526, "EPHEMERIS_TYPE": 0, "CLASSIFICATION_TYPE": "U", "NORAD_CAT_ID": 31625, "ELEMENT_SET_NO": 999, "REV_AT_EPOCH": 98549, "BSTAR": 0.0001395817, "MEAN_MOTION_DOT": 6.42e-06, "MEAN_MOTION_DDOT": 0}, "tle": {"line1": "1 31625U 99025CAF 25357.47653999  .00000642  00000+0  13958-3 0  9996", "line2": "2 31625  98.8052  84.0838 0148639 343.0818  78.1526 14.55414171985497"}}, "geometry": {"type": "Point", "coordinates": [-124.06182837405572, -72.73894432607784]}}, {"type": "Feature", "properties": {"norad_id": 31627, "name": "FENGYUN 1C DEB", "group": "fengyun-1c-debris", "lat": -36.17381611655491, "lon": 53.200610341183896, "alt_km": 812.0445460483525, "timestamp": "2025-12-25T03:55:56.641333+00:00", "meta": {"OBJECT_NAME": "FENGYUN 1C DEB", "OBJECT_ID": "1999-025CAH", "EPOCH": "2025-11-26T09:13:22.975680", "MEAN_MOTION": 14.35408996, "ECCENTRICITY": 0.00515931, "INCLINATION": 98.5313, "RA_OF_ASC_NODE": 18.4415, "ARG_OF_PERICENTER": 201.9005, "MEAN_ANOMALY": 157.9975, "EPHEMERIS_TYPE": 0, "CLASSIFICATION_TYPE": "U", "NORAD_CAT_ID": 31627, "ELEMENT_SET_NO": 999, "REV_AT_EPOCH": 64532, "BSTAR": 0.0013473839, "MEAN_MOTION_DOT": 3.885e-05, "MEAN_MOTION_DDOT": 0}, "tle": {"line1": "1 31627U 99025CAH 25330.38429370  .00003885  00000+0  13474-2 0  9997", "line2": "2 31627  98.5313  18.4415 0051593 201.9005 157.9975 14.35408996645325"}}, "geometry": {"type": "Point", "coordinates": [53.200610341183896, -36.17381611655491]}}, {"type": "Feature", "properties": {"norad_id": 31628, "name": "FENGYUN 1C DEB", "group": "fengyun-1c-debris", "lat": -75.79415180548855, "lon": -82.8868312215274, "alt_km": 937.7603899649175, "timestamp": "2025-12-25T03:55:56.641343+00:00", "meta": {"OBJECT_NAME": "FENGYUN 1C DEB", "OBJECT_ID": "1999-025CAJ", "EPOCH": "2025-12-22T20:56:07.090656", "MEAN_MOTION": 13.86878288, "ECCENTRICITY": 0.0167706, "INCLINATION": 102.2706, "RA_OF_ASC_NODE": 214.8323, "ARG_OF_PERICENTER": 195.9102, "MEAN_ANOMALY": 163.6736, "EPHEMERIS_TYPE": 0, "CLASSIFICATION_TYPE": "U", "NORAD_CAT_ID": 31628, "ELEMENT_SET_NO": 999, "REV_AT_EPOCH": 93440, "BSTAR": 0.0016777, "MEAN_MOTION_DOT": 2.121e-05, "MEAN_MOTION_DDOT": 0}, "tle": {"line1": "1 31628U 99025CAJ 25356.87230429  .00002121  00000+0  16777-2 0  9996", "line2": "2 31628 102.2706 214.8323 0167706 195.9102 163.6736 13.86878288934408"}}, "geometry": {"type": "Point", "coordinates": [-82.8868312215274, -75.79415180548855]}}, {"type": "Feature", "properties": {"norad_id": 31629, "name": "FENGYUN 1C DEB", "group": "fengyun-1c-debris", "lat": -32.10178630587276, "lon": 57.25594230367347, "alt_km": 782.9848500431362, "timestamp": "2025-12-25T03:55:56.641354+00:00", "meta": {"OBJECT_NAME": "FENGYUN 1C DEB", "OBJECT_ID": "1999-025CAK", "EPOCH": "2025-12-22T21:46:19.265952", "MEAN_MOTION": 14.1470932, "ECCENTRICITY": 0.0103695, "INCLINATION": 102.1329, "RA_OF_ASC_NODE": 46.4435, "ARG_OF_PERICENTER": 1.0988, "MEAN_ANOMALY": 359.0383, "EPHEMERIS_TYPE": 0, "CLASSIFICATION_TYPE": "U", "NORAD_CAT_ID": 31629, "ELEMENT_SET_NO": 999, "REV_AT_EPOCH": 94590, "BSTAR": 0.0024639, "MEAN_MOTION_DOT": 4.928e-05, "MEAN_MOTION_DDOT": 0}, "tle": {"line1": "1 31629U 99025CAK 25356.90716743  .00004928  00000+0  24639-2 0  9992", "line2": "2 31629 102.1329  46.4435 0103695   1.0988 359.0383 14.14709320945906"}}, "geometry": {"type": "Point", "coordinates": [57.25594230367347, -32.10178630587276]}}]}